STARLINK-5797           
1 55784U 23028AV  26068.75272391 -.00001343  00000+0 -10479-3 0  9998
2 55784  70.0015 204.3748 0003265 274.0600  86.0186 14.98326824167030
QPS-SAR-15 (SUKUNAMI-I) 
1 67228U 25307A   26067.99718845  .00007522  00000+0  63967-3 0  9993
2 67228  42.0068  57.7223 0008196  56.4325 303.7282 14.98074148 11656
