[{"OBJECT_NAME":"STARLINK-5797","OBJECT_ID":"2023-028AV","EPOCH":"2026-03-09T18:03:55.345824","MEAN_MOTION":14.98326824,"ECCENTRICITY":0.00032648,"INCLINATION":70.0015,"RA_OF_ASC_NODE":204.3748,"ARG_OF_PERICENTER":274.06,"MEAN_ANOMALY":86.0186,"EPHEMERIS_TYPE":0,"CLASSIFICATION_TYPE":"U","NORAD_CAT_ID":55784,"ELEMENT_SET_NO":999,"REV_AT_EPOCH":16703,"BSTAR":-0.00010478764,"MEAN_MOTION_DOT":-1.343e-5,"MEAN_MOTION_DDOT":0},{"OBJECT_NAME":"QPS-SAR-15 (SUKUNAMI-I)","OBJECT_ID":"2025-307A","EPOCH":"2026-03-08T23:55:57.082080","MEAN_MOTION":14.98074148,"ECCENTRICITY":0.00081968,"INCLINATION":42.0068,"RA_OF_ASC_NODE":57.7223,"ARG_OF_PERICENTER":56.4325,"MEAN_ANOMALY":303.7282,"EPHEMERIS_TYPE":0,"CLASSIFICATION_TYPE":"U","NORAD_CAT_ID":67228,"ELEMENT_SET_NO":999,"REV_AT_EPOCH":1165,"BSTAR":0.00063967163,"MEAN_MOTION_DOT":7.522e-5,"MEAN_MOTION_DDOT":0}]
